OBJECT_NAME,OBJECT_ID,EPOCH,MEAN_MOTION,ECCENTRICITY,INCLINATION,RA_OF_ASC_NODE,ARG_OF_PERICENTER,MEAN_ANOMALY,EPHEMERIS_TYPE,CLASSIFICATION_TYPE,NORAD_CAT_ID,ELEMENT_SET_NO,REV_AT_EPOCH,BSTAR,MEAN_MOTION_DOT,MEAN_MOTION_DDOT
ONEWEB-0236,2021-045AG,2026-07-12T02:56:36.601440,13.15548464,.00021116,87.8985,254.2384,95.1449,264.9923,0,U,48797,999,24753,-.32219466E-3,-.108E-5,0
ONEWEB-0248,2021-045AH,2026-07-12T03:14:51.370656,13.15549101,.000241,87.8993,254.2216,107.9762,252.1631,0,U,48798,999,24769,-.3417607E-4,0,0
ONEWEB-0225,2021-045AJ,2026-07-11T15:00:09.120384,13.15548018,.00021707,87.8992,254.3306,113.0132,247.1228,0,U,48799,999,24763,.4228729E-3,.172E-5,0
ONEWEB-0215,2021-045AK,2026-07-11T16:06:18.628416,13.15548721,.00023323,87.8997,254.3050,114.4845,245.6529,0,U,48800,999,24751,-.31886991E-3,-.107E-5,0
ONEWEB-0216,2021-045AL,2026-07-12T03:17:08.655072,13.15548056,.00019374,87.8987,254.2270,98.5157,261.6193,0,U,48801,999,24758,-.14294151E-3,-.41E-6,0
ONEWEB-0239,2021-045AM,2026-07-12T03:23:59.513856,13.15547525,.00025553,87.8985,254.2286,113.0006,247.1394,0,U,48802,999,24762,.13436853E-4,.18E-6,0
ONEWEB-0249,2021-060A,2026-07-12T01:20:26.945088,13.16593857,.00021991,87.9079,223.8385,96.0223,264.1158,0,U,48967,999,24288,-.53593353E-3,-.192E-5,0
ONEWEB-0250,2021-060B,2026-07-12T01:27:45.965088,13.25834994,.00030521,87.9078,221.5127,89.1876,270.9610,0,U,48968,999,24351,-.54078531E-4,-.11E-6,0
ONEWEB-0252,2021-060D,2026-07-12T02:04:56.680032,13.16595228,.00018142,87.9080,223.8245,96.3356,263.7982,0,U,48970,999,24293,.15055381E-3,.7E-6,0
ONEWEB-0253,2021-060E,2026-07-12T01:48:59.271264,13.16594795,.00021693,87.9079,223.8321,95.3675,264.7703,0,U,48971,999,24286,.37095448E-3,.155E-5,0
ONEWEB-0254,2021-060F,2026-07-12T02:02:40.320096,13.16594176,.00022481,87.9084,223.8281,98.0152,262.1234,0,U,48972,999,24286,.15703527E-3,.73E-6,0
ONEWEB-0255,2021-060G,2026-07-12T01:07:57.137376,13.16593769,.00021408,87.9080,223.8419,99.1547,260.9826,0,U,48973,999,24293,-.8209827E-4,-.19E-6,0
ONEWEB-0256,2021-060H,2026-07-12T01:45:32.537664,13.16592198,.00018439,87.9073,223.8402,92.2541,267.8801,0,U,48974,999,24290,.17256649E-3,.79E-6,0
ONEWEB-0257,2021-060J,2026-07-11T13:46:15.481056,13.16593327,.000207,87.9079,223.9280,97.2060,262.9307,0,U,48975,999,24279,-.33969335E-3,-.117E-5,0
ONEWEB-0258,2021-060K,2026-07-12T00:45:09.159264,13.16594034,.00021135,87.9079,223.8489,93.8911,266.2461,0,U,48976,999,24286,.20686611E-4,.21E-6,0
ONEWEB-0259,2021-060L,2026-07-11T15:28:51.205440,13.16594550,.00021975,87.9079,223.9240,96.3564,263.7818,0,U,48977,999,24284,-.57453192E-4,-.9E-7,0
ONEWEB-0260,2021-060M,2026-07-12T00:23:28.277664,13.16595663,.00016671,87.9073,223.8509,91.1641,268.9681,0,U,48978,999,24287,.17379134E-3,.79E-6,0
ONEWEB-0261,2021-060N,2026-07-12T01:29:37.026240,13.16593403,.00020193,87.9072,223.8431,104.4834,255.6521,0,U,48979,999,24293,.20531265E-3,.91E-6,0
ONEWEB-0262,2021-060P,2026-07-11T14:04:29.747424,13.16594179,.00022404,87.9075,223.9235,97.3343,262.8043,0,U,48980,999,24283,.11233593E-3,.56E-6,0
ONEWEB-0263,2021-060Q,2026-07-12T01:46:42.417984,13.16593681,.00021258,87.9081,223.8383,104.4764,255.6603,0,U,48981,999,24286,.25312438E-3,.11E-5,0
ONEWEB-0264,2021-060R,2026-07-11T13:54:12.631104,13.16592262,.00019248,87.9070,223.9395,99.0645,261.0704,0,U,48982,999,24280,-.93713498E-4,-.23E-6,0
ONEWEB-0266,2021-060T,2026-07-12T01:21:37.166688,13.16595162,.0002164,87.9078,223.8352,91.0991,269.0388,0,U,48984,999,24285,.53605229E-4,.33E-6,0
ONEWEB-0267,2021-060U,2026-07-12T01:37:35.439456,13.16593604,.00019795,87.9081,223.8301,100.4995,259.6359,0,U,48985,999,24286,.33010737E-3,.139E-5,0
ONEWEB-0268,2021-060V,2026-07-12T00:51:59.386464,13.16593941,.00020056,87.9081,223.8457,91.1560,268.9801,0,U,48986,999,24312,.3818115E-4,.27E-6,0
ONEWEB-0269,2021-060W,2026-07-11T13:28:01.056576,13.16594025,.00020114,87.9078,223.9406,88.6979,271.4383,0,U,48987,999,24283,.40790713E-4,.28E-6,0
ONEWEB-0270,2021-060X,2026-07-12T00:49:42.817440,13.16594044,.00023255,87.9085,223.8478,102.7095,257.4296,0,U,48988,999,24293,-.12206728E-3,-.34E-6,0
ONEWEB-0271,2021-060Y,2026-07-12T00:31:28.494048,13.16594190,.00020606,87.9076,223.8400,97.6611,262.4754,0,U,48989,999,24293,.1097299E-5,.13E-6,0
ONEWEB-0272,2021-060Z,2026-07-12T01:03:23.338368,13.16595641,.00017801,87.9072,223.8467,95.9773,264.1561,0,U,48990,999,24288,-.42247587E-4,-.3E-7,0
ONEWEB-0273,2021-060AA,2026-07-12T01:35:18.321792,13.16593716,.0002122,87.9081,223.8420,100.6441,259.4929,0,U,48991,999,24286,.16903804E-3,.77E-6,0
ONEWEB-0274,2021-060AB,2026-07-11T15:15:09.569952,13.16595642,.00017024,87.9070,223.9278,93.7646,266.3680,0,U,48992,999,24284,-.10067889E-3,-.26E-6,0
